0 SL-18 R/B
1 26703U 01007B   13282.12123237  .00000553  00000-0  58348-4 0  4397
2 26703 097.7403 291.1791 0003409 013.9991 346.1322 14.93174930687179
0 SL-18 R/B
1 26703U 01007B   13283.12642478  .00000648  00000-0  67459-4 0  4401
2 26703 097.7402 292.1685 0003303 010.7756 349.3534 14.93175326687325
0 SL-18 R/B
1 26703U 01007B   13284.13161604  .00000968  00000-0  98065-4 0  4413
2 26703 097.7400 293.1578 0003193 007.1700 352.9565 14.93175374687474
0 SL-18 R/B
1 26703U 01007B   13285.47187065  .00001013  00000-0  10241-3 0  4422
2 26703 097.7398 294.4768 0003028 002.7464 357.3772 14.93176161687676
0 SL-18 R/B
1 26703U 01007B   13286.61108569  .00001458  00000-0  14500-3 0  4437
2 26703 097.7397 295.5978 0002926 359.1110 001.0104 14.93176734687840
0 SL-18 R/B
1 26703U 01007B   13287.61627588  .00001781  00000-0  17600-3 0  4449
2 26703 097.7396 296.5868 0002832 355.7314 004.3881 14.93181003687991
0 SL-18 R/B
1 26703U 01007B   13289.09055056  .00001827  00000-0  18031-3 0  4459
2 26703 097.7397 298.0374 0002708 350.7632 009.3537 14.93187784688212
0 SL-18 R/B
1 26703U 01007B   13290.09573536  .00001638  00000-0  16219-3 0  4466
2 26703 097.7397 299.0264 0002634 347.0759 013.0392 14.93191713688362
0 SL-18 R/B
1 26703U 01007B   13291.50299039  .00001275  00000-0  12748-3 0  4477
2 26703 097.7398 300.4110 0002535 340.8701 019.2423 14.93198774688578
0 SL-18 R/B
1 26703U 01007B   13292.50816871  .00001099  00000-0  11058-3 0  4485
2 26703 097.7398 301.3999 0002521 335.5070 024.6030 14.93202875688727
0 SL-18 R/B
1 26703U 01007B   13293.64736665  .00001045  00000-0  10543-3 0  4493
2 26703 097.7399 302.5209 0002480 329.4695 030.6380 14.93206190688891
0 SL-18 R/B
1 26703U 01007B   13294.85357248  .00001065  00000-0  10726-3 0  4500
2 26703 097.7398 303.7079 0002446 322.7239 037.3810 14.93209789689070
